{
  "norad_id": 55973,
  "name": "TIANMU-1 03",
  "history": [
    {
      "epoch": "2026-03-28T22:14:10.707648Z",
      "apogee_km": 434.0530699168403,
      "perigee_km": 429.4155475555908,
      "latitude_deg": 8.223825617659216e-06,
      "longitude_deg": 99.02373507713918,
      "height_km": 433.30040272297526,
      "semi_major_axis_km": 6809.871308736215,
      "eccentricity": 0.0003405,
      "inclination_deg": 97.5195,
      "raan_deg": 258.9083,
      "arg_perigee_deg": 48.0499,
      "mean_anomaly_deg": 312.1039,
      "mean_motion_rev_day": 15.44878769
    },
    {
      "epoch": "2026-03-29T04:27:15.842592Z",
      "apogee_km": 434.0066675535345,
      "perigee_km": 429.3773457947973,
      "latitude_deg": 7.702890601530486e-05,
      "longitude_deg": 5.765362504075607,
      "height_km": 433.2596330410999,
      "semi_major_axis_km": 6809.829006674166,
      "eccentricity": 0.0003399,
      "inclination_deg": 97.5195,
      "raan_deg": 259.1767,
      "arg_perigee_deg": 48.009,
      "mean_anomaly_deg": 312.1448,
      "mean_motion_rev_day": 15.44893164
    },
    {
      "epoch": "2026-03-30T05:19:34.739040Z",
      "apogee_km": 433.84101263072534,
      "perigee_km": 429.28123876575773,
      "latitude_deg": -1.979195192407959e-05,
      "longitude_deg": -7.261912597782896,
      "height_km": 433.07248360323126,
      "semi_major_axis_km": 6809.698125698241,
      "eccentricity": 0.0003348,
      "inclination_deg": 97.5192,
      "raan_deg": 260.2496,
      "arg_perigee_deg": 45.2473,
      "mean_anomaly_deg": 314.9047,
      "mean_motion_rev_day": 15.44937703
    }
  ]
}